KCLT 130152Z 21006KT 10SM BKN250 23/21 A2984 RMK SLP096 T02330211 $